{
    "links": {
        "self": "http://www.neowsapp.com/rest/v1/neo/3368731?api_key=iIulBulltgU6a56xZRHN4H3l9WmuAYTsLGpBGhQ2"
    },
    "id": "3368731",
    "neo_reference_id": "3368731",
    "name": "(2007 DE8)",
    "designation": "2007 DE8",
    "nasa_jpl_url": "http://ssd.jpl.nasa.gov/sbdb.cgi?sstr=3368731",
    "absolute_magnitude_h": 23.3,
    "estimated_diameter": {
        "kilometers": {
            "estimated_diameter_min": 0.058150704,
            "estimated_diameter_max": 0.130028927
        },
        "meters": {
            "estimated_diameter_min": 58.1507039646,
            "estimated_diameter_max": 130.0289270043
        },
        "miles": {
            "estimated_diameter_min": 0.0361331611,
            "estimated_diameter_max": 0.0807962044
        },
        "feet": {
            "estimated_diameter_min": 190.7831555951,
            "estimated_diameter_max": 426.6041048727
        }
    },
    "is_potentially_hazardous_asteroid": false,
    "close_approach_data": [
        {
            "close_approach_date": "2001-12-01",
            "close_approach_date_full": "2001-Dec-01 07:20",
            "epoch_date_close_approach": 1007191200000,
            "relative_velocity": {
                "kilometers_per_second": "15.9082950381",
                "kilometers_per_hour": "57269.8621369872",
                "miles_per_hour": "35585.2651706185"
            },
            "miss_distance": {
                "astronomical": "0.3102602856",
                "lunar": "120.6912510984",
                "kilometers": "46414277.871351672",
                "miles": "28840494.9177381936"
            },
            "orbiting_body": "Earth"
        },
        {
            "close_approach_date": "2003-02-22",
            "close_approach_date_full": "2003-Feb-22 12:45",
            "epoch_date_close_approach": 1045917900000,
            "relative_velocity": {
                "kilometers_per_second": "19.2632071456",
                "kilometers_per_hour": "69347.5457242111",
                "miles_per_hour": "43089.8680640244"
            },
            "miss_distance": {
                "astronomical": "0.3111627717",
                "lunar": "121.0423181913",
                "kilometers": "46549287.869616279",
                "miles": "28924386.2405674902"
            },
            "orbiting_body": "Earth"
        },
        {
            "close_approach_date": "2007-02-19",
            "close_approach_date_full": "2007-Feb-19 07:22",
            "epoch_date_close_approach": 1171869720000,
            "relative_velocity": {
                "kilometers_per_second": "9.1029616958",
                "kilometers_per_hour": "32770.6621049262",
                "miles_per_hour": "20362.4150173637"
            },
            "miss_distance": {
                "astronomical": "0.0988948596",
                "lunar": "38.4701003844",
                "kilometers": "14794460.350109052",
                "miles": "9192851.3833748376"
            },
            "orbiting_body": "Earth"
        }
    ],
    "orbital_data": {
        "orbit_id": "7",
        "orbit_determination_date": "2017-04-06 09:06:58",
        "first_observation_date": "2007-02-21",
        "last_observation_date": "2007-02-22",
        "data_arc_in_days": 1,
        "observations_used": 32,
        "orbit_uncertainty": "8",
        "minimum_orbit_intersection": ".049931",
        "jupiter_tisserand_invariant": "6.727",
        "epoch_osculation": "2454153.5",
        "eccentricity": ".3080716114477475",
        "semi_major_axis": ".8718483238259727",
        "inclination": "12.8774570187394",
        "ascending_node_longitude": "327.1716105440521",
        "orbital_period": "297.3444469616109",
        "perihelion_distance": ".6032566057668877",
        "perihelion_argument": "327.5649410670804",
        "aphelion_distance": "1.140440041885058",
        "perihelion_time": "2454253.834321907954",
        "mean_anomaly": "238.523522951391",
        "mean_motion": "1.210717078050825",
        "equinox": "J2000",
        "orbit_class": {
            "orbit_class_type": "ATE",
            "orbit_class_description": "Near-Earth asteroid orbits similar to that of 2062 Aten",
            "orbit_class_range": "a (semi-major axis) < 1.0 AU; q (perihelion) > 0.983 AU"
        }
    },
    "is_sentry_object": false
}